{"version": 0.6, "generator": "Overpass API 0.7.59 e21c39fe", "osm3s": {"timestamp_osm_base": "2022-10-26T13:43:43Z", "copyright": "The data included in this document is from www.openstreetmap.org. The data is made available under ODbL."}, "elements": [{"type": "node", "id": 357618570, "lat": 40.7299234, "lon": -73.9981687, "tags": {"amenity": "place_of_worship", "denomination": "catholic", "ele": "8", "gnis:county_id": "061", "gnis:created": "12/12/2005", "gnis:feature_id": "2080754", "gnis:state_id": "36", "name": "Generoso Pope Catholic Center at New York University", "religion": "christian"}}, {"type": "node", "id": 357618575, "lat": 40.7305142, "lon": -73.9988154, "tags": {"amenity": "school", "ele": "7", "gnis:county_id": "061", "gnis:created": "12/12/2005", "gnis:feature_id": "2080757", "gnis:state_id": "36", "name": "Hagop Kevorkian Center for Near Eastern Studies", "website": "https://as.nyu.edu"}}, {"type": "node", "id": 419360169, "lat": 40.7289398, "lon": -73.9983114, "tags": {"amenity": "bicycle_parking", "capacity": "4", "cityracks.housenum": "550", "cityracks.installed": "7/15/2001", "cityracks.large": "0", "cityracks.rackid": "2235,2236", "cityracks.small": "2", "cityracks.street": "La Guardia Pl"}}, {"type": "node", "id": 419363657, "lat": 40.7304796, "lon": -73.9986253, "tags": {"amenity": "bicycle_parking", "capacity": "2", "cityracks.housenum": "53", "cityracks.large": "0", "cityracks.rackid": "2230", "cityracks.small": "1", "cityracks.street": "Washington Sq South"}}, {"type": "node", "id": 419366690, "lat": 40.7302738, "lon": -73.9999711, "tags": {"amenity": "bicycle_parking", "bicycle_parking": "stands", "capacity": "2", "cityracks.housenum": "110", "cityracks.large": "0", "cityracks.rackid": "2195", "cityracks.small": "1", "cityracks.street": "W 3rd St", "covered": "no"}}, {"type": "node", "id": 419366720, "lat": 40.72897, "lon": -73.9980697, "tags": {"amenity": "bicycle_parking", "capacity": "2", "cityracks.housenum": "551", "cityracks.large": "0", "cityracks.rackid": "2237", "cityracks.small": "1", "cityracks.street": "La Guardia Pl"}}, {"type": "node", "id": 1241288717, "lat": 40.7264975, "lon": -73.9971548}, {"type": "node", "id": 1241288720, "lat": 40.7304534, "lon": -74.0013399}, {"type": "node", "id": 1241288722, "lat": 40.7270494, "lon": -73.9967066}, {"type": "node", "id": 1241288724, "lat": 40.7260797, "lon": -73.9963141}, {"type": "node", "id": 1241288726, "lat": 40.7303386, "lon": -73.9948846}, {"type": "node", "id": 1241288727, "lat": 40.73286, "lon": -73.9979742}, {"type": "node", "id": 1241288730, "lat": 40.7281422, "lon": -73.9956846}, {"type": "node", "id": 1241288732, "lat": 40.7288365, "lon": -73.9950618}, {"type": "node", "id": 1241288733, "lat": 40.7284965, "lon": -73.994331}, {"type": "node", "id": 1241288735, "lat": 40.727798, "lon": -73.9949309}, {"type": "node", "id": 1241288737, "lat": 40.7262926, "lon": -73.9973404}, {"type": "node", "id": 1241288740, "lat": 40.7259942, "lon": -73.997591}, {"type": "node", "id": 1241288742, "lat": 40.7270464, "lon": -73.99969}, {"type": "node", "id": 1241288744, "lat": 40.7258656, "lon": -73.9965}, {"type": "node", "id": 1241288746, "lat": 40.7312667, "lon": -73.9940737}, {"type": "node", "id": 1241288747, "lat": 40.7327109, "lon": -73.999944}, {"type": "node", "id": 1241288751, "lat": 40.7289159, "lon": -73.998109}, {"type": "node", "id": 1241288753, "lat": 40.7266414, "lon": -73.9959149}, {"type": "node", "id": 1241288754, "lat": 40.7295906, "lon": -73.9934042}, {"type": "node", "id": 2077984659, "lat": 40.7320879, "lon": -73.9986282}, {"type": "node", "id": 2547084082, "lat": 40.7268647, "lon": -73.996872}, {"type": "node", "id": 2547162720, "lat": 40.7322057, "lon": -73.9963192}, {"type": "node", "id": 2550046897, "lat": 40.7299427, "lon": -73.999592, "tags": {"addr:city": "New York", "addr:housenumber": "240", "addr:postcode": "10012", "addr:state": "NY", "addr:street": "Sullivan Street", "amenity": "cafe", "cuisine": "coffee_shop", "name": "Third Rail Coffee", "opening_hours": "Mo-Fr 07:00-20:00, Sa-Su 08:00-20:00", "outdoor_seating": "yes", "toilets": "no", "wheelchair": "no"}}, {"type": "node", "id": 2550067307, "lat": 40.7290516, "lon": -73.9971308}, {"type": "node", "id": 2550067328, "lat": 40.7293291, "lon": -73.9977056}, {"type": "node", "id": 2550067353, "lat": 40.7295282, "lon": -73.99673}, {"type": "node", "id": 2550067442, "lat": 40.7300275, "lon": -73.9984077}, {"type": "node", "id": 2550067443, "lat": 40.7300323, "lon": -73.9984175}, {"type": "node", "id": 2550067457, "lat": 40.7301236, "lon": -73.9986035}, {"type": "node", "id": 2550067462, "lat": 40.730167, "lon": -73.9985667}, {"type": "node", "id": 2550067476, "lat": 40.7302513, "lon": -73.9984952}, {"type": "node", "id": 2550067479, "lat": 40.7302607, "lon": -73.9982099}, {"type": "node", "id": 2550067482, "lat": 40.7302883, "lon": -73.9984638}, {"type": "node", "id": 2550067502, "lat": 40.7303568, "lon": -73.9984058}, {"type": "node", "id": 2550551827, "lat": 40.7290525, "lon": -73.9982836}, {"type": "node", "id": 2550551860, "lat": 40.7290969, "lon": -73.9982457}, {"type": "node", "id": 2550551884, "lat": 40.7291355, "lon": -73.9984516}, {"type": "node", "id": 2550551901, "lat": 40.7291722, "lon": -73.9983983}, {"type": "node", "id": 2550551908, "lat": 40.7291799, "lon": -73.9984137}, {"type": "node", "id": 2550552051, "lat": 40.7295296, "lon": -73.9989547}, {"type": "node", "id": 2550552063, "lat": 40.729568, "lon": -73.9990333}, {"type": "node", "id": 2550552076, "lat": 40.7296037, "lon": -73.9991061}, {"type": "node", "id": 2550552096, "lat": 40.7297007, "lon": -73.99881}, {"type": "node", "id": 2550552102, "lat": 40.7297392, "lon": -73.9988886}, {"type": "node", "id": 2550552105, "lat": 40.7297748, "lon": -73.9989615}, {"type": "node", "id": 2855621634, "lat": 40.7298058, "lon": -73.9973048}, {"type": "node", "id": 3233791134, "lat": 40.7293867, "lon": -73.9987052, "tags": {"addr:city": "New York", "addr:housenumber": "230", "addr:postcode": "10012", "addr:state": "NY", "addr:street": "Thompson Street", "amenity": "cafe", "club": "game", "cuisine": "coffee_shop; beer", "email": "us@uncommonsnyc.com", "internet_access": "wlan", "name": "The Uncommons", "opening_hours": "Mo-Th 08:30-00:00; Fr, Sa 08:30-01:00; Su 08:30-23:00", "outdoor_seating": "yes", "phone": "+1-646-543-9215", "shop": "games", "website": "uncommonsnyc.com", "wikidata": "Q20880821"}}, {"type": "node", "id": 3581036299, "lat": 40.7297301, "lon": -73.998949, "tags": {"amenity": "restaurant", "cuisine": "chinese", "fax": "646-896-1599", "name": "Legend West Village", "opening_hours": "11:00-23:00", "phone": "646-918-6216", "wheelchair": "no"}}, {"type": "node", "id": 3581143883, "lat": 40.7293893, "lon": -73.9990089, "tags": {"addr:city": "New York", "addr:housenumber": "231", "addr:postcode": "10012", "addr:state": "NY", "addr:street": "Thompson Street", "amenity": "restaurant", "capacity": "8", "cuisine": "japanese", "name": "Go! Go! CURRY!", "takeaway": "yes"}}, {"type": "node", "id": 3708656626, "lat": 40.7291703, "lon": -73.9981023, "tags": {"amenity": "bicycle_rental", "brand": "Citi Bike", "brand:wikidata": "Q2974438", "brand:wikipedia": "en:Citi Bike", "capacity": "35", "name": "Citi Bike - LaGuardia Pl & W 3 St", "network": "Citi Bike", "network:wikidata": "Q2974438", "network:wikipedia": "en:Citi Bike", "operator": "Citi Bike", "operator:wikidata": "Q2974438", "operator:wikipedia": "en:Citi Bike", "website": "https://citibikenyc.com/"}}, {"type": "node", "id": 4035602815, "lat": 40.7295509, "lon": -73.9985745, "tags": {"addr:housenumber": "76", "addr:street": "West 3rd Street", "amenity": "pub", "name": "The Half Pint", "opening_hours": "Mo, Tu 12:00-02:00; We 12:00-03:00; Th, Fr 12:00-04:00; Sa 11:00-04:00; Su 11:00-02:00", "payment:cash": "yes", "payment:cheque": "yes", "payment:credit_cards": "yes", "phone": "+1-212-260-1088", "reservation": "yes", "takeaway": "yes", "toilets": "yes", "toilets:wheelchair": "yes", "website": "http://www.thehalfpintnyc.com/", "wheelchair": "yes"}}, {"type": "node", "id": 4149654067, "lat": 40.7295949, "lon": -73.9996291, "tags": {"amenity": "bar", "name": "VBar & Cafe", "phone": "+1 212 253 5740", "website": "https://www.vbarandcompany.com/location/vbar-cafe/"}}, {"type": "node", "id": 4310489538, "lat": 40.7292821, "lon": -73.996937}, {"type": "node", "id": 4310489544, "lat": 40.7295738, "lon": -73.9974998}, {"type": "node", "id": 4310489547, "lat": 40.7296699, "lon": -73.9970233}, {"type": "node", "id": 5265713043, "lat": 40.7290362, "lon": -73.9983208, "tags": {"addr:housenumber": "548", "addr:street": "LaGuardia Place", "amenity": "restaurant", "cuisine": "italian;pizza;pasta;tuscan", "delivery": "Mo-Th 11:15-22:00;Fr-Sa 11:15-22:30;Su 12:00-21:30", "delivery:fee": "no", "delivery:min_payment": "12", "diet:vegetarian": "yes", "name": "Tre Giovani", "opening_hours": "Mo-Th, Su 11:30-22:00; Fr, Sa 11:30-23:00", "organic": "yes", "outdoor_seating": "yes", "payment:american_express": "yes", "payment:cash": "yes", "payment:discover_card": "yes", "payment:mastercard": "yes", "payment:visa": "yes", "phone": "+1-212-475-7420", "reservation": "yes", "takeaway": "yes", "toilets": "yes", "website": "https://www.tregiovaninewyork.com/"}}, {"type": "node", "id": 5401946266, "lat": 40.7290495, "lon": -73.9992861, "tags": {"amenity": "post_office", "name": "Village Postal Works", "opening_hours": "Mo-Fr 09:00-19:00; Sa 10:30-17:30", "phone": "+1 646-922-7067"}}, {"type": "node", "id": 5514171300, "lat": 40.7298263, "lon": -73.9977312, "tags": {"addr:housenumber": "566", "addr:street": "LaGuardia Place", "amenity": "theatre", "capacity": "860", "email": "skirball.center.info@nyu.edu", "name": "Skirball Center for the Performing Arts", "operator": "New York University", "payment:cash": "yes", "payment:credit_cards": "yes", "phone": "+1-212-992-8484", "toilets": "yes", "toilets:wheelchair": "yes", "website": "https://nyuskirball.org/", "wheelchair": "yes", "wikidata": "Q3486320"}}, {"type": "node", "id": 5514204632, "lat": 40.7300708, "lon": -73.9980317, "tags": {"addr:housenumber": "238", "addr:street": "Thompson Street", "amenity": "place_of_worship", "denomination": "nondenominational", "email": "info@icnyu.org", "name": "Islamic Center at NYU", "opening_hours": "Mo-Sa 08:00-00:00; Su 12:00-22:00", "phone": "+1-212-998-4712", "religion": "muslim", "service_times": "Fr 13:15-14:00", "website": "https://www.icnyu.org/", "wheelchair": "yes"}}, {"type": "node", "id": 5514228220, "lat": 40.7296364, "lon": -73.9981099, "tags": {"addr:housenumber": "60", "addr:street": "Washington Square South", "addr:unit": "3rd Floor", "amenity": "fast_food", "cuisine": "italian; mexican; sandwich", "diet:halal": "yes", "diet:vegetarian": "yes", "name": "The Market Place at Kimmel", "opening_hours": "Mo-Th 10:30-20:00; Fr 10:30-15:00", "outdoor_seating": "yes", "payment:cash": "yes", "payment:credit_cards": "yes", "payment:meal_voucher": "yes", "payment:token": "yes", "phone": "+1-212-998-4573", "website": "https://nyu.campusdish.com/Locations/MarketPlaceatKimmel.aspx"}}, {"type": "node", "id": 5514272788, "lat": 40.7293315, "lon": -73.9987446, "tags": {"addr:housenumber": "230", "addr:street": "Thompson Streer", "amenity": "restaurant", "cuisine": "ramen", "name": "Karakatta", "opening_hours": "Tu-Su 11:30-23:30; Mo 11:45-23:30", "payment:credit_cards": "yes", "phone": "+1-917-261-6297", "takeaway": "yes", "wheelchair": "yes"}}, {"type": "node", "id": 5587111257, "lat": 40.7291434, "lon": -73.999255, "tags": {"addr:city": "New York", "addr:housenumber": "217", "addr:postcode": "10012", "addr:state": "NY", "addr:street": "Thompson Street", "amenity": "cafe", "cuisine": "bubble_tea", "name": "Debutea", "phone": "(646) 767-0147", "website": "https://www.debutea.com/"}}, {"type": "node", "id": 5761684915, "lat": 40.7288692, "lon": -73.9992195, "tags": {"access": "yes", "amenity": "bicycle_parking", "bicycle_parking": "stands", "capacity": "2", "covered": "no"}}, {"type": "node", "id": 5849929497, "lat": 40.7296485, "lon": -73.9988026, "tags": {"addr:housenumber": "78", "addr:street": "West 3rd Street", "air_conditioning": "yes", "amenity": "cafe", "bar": "no", "diet:lactose_free": "yes", "diet:vegan": "yes", "diet:vegetarian": "yes", "drink:coffee": "yes", "email": "holler@irvingfarm.com", "internet_access": "no", "name": "Irving Farm Coffee Roasters", "opening_hours": "Sa, Su 08:00-20:00; Mo-Fr 07:00-20:00", "outdoor_seating": "yes", "payment:contactless": "yes", "phone": "+1-646-398-7146", "takeaway": "yes", "toilets": "yes", "toilets:access": "permissive", "toilets:unisex": "yes", "toilets:wheelchair": "yes", "website": "https://irvingfarm.com/", "wheelchair": "yes"}}, {"type": "node", "id": 6053253585, "lat": 40.7297907, "lon": -73.9994469, "tags": {"addr:postcode": "10012", "amenity": "restaurant", "cuisine": "asian;thai", "name": "Top Thai Greenwich", "opening_hours": "Mo-Th 11:00-22:00; Fr-Su 11:00-23:00", "website": "https://www.topthainyc.com/"}}, {"type": "node", "id": 6216388191, "lat": 40.7279334, "lon": -73.9989399}, {"type": "node", "id": 6216388192, "lat": 40.7279732, "lon": -73.9989062}, {"type": "node", "id": 6475053286, "lat": 40.7297886, "lon": -73.9995863, "tags": {"addr:housenumber": "231", "addr:street": "Sullivan Street", "amenity": "restaurant", "cuisine": "sushi", "fixme": "fix node position", "name": "SOHO Sushi"}}, {"type": "node", "id": 7024106348, "lat": 40.7291884, "lon": -73.9982062, "tags": {"addr:city": "New York", "addr:housenumber": "552", "addr:postcode": "10012", "addr:state": "NY", "addr:street": "Laguardia Place", "amenity": "restaurant", "cuisine": "coffee_shop;french;bakery", "email": "info@millefeuille-nyc.com", "name": "Mille Feuille", "opening_hours": "Mo-Fr 07:00-19:00,Sa-Su 08:30-19:00", "outdoor_seating": "yes", "phone": "+1-212-533-4698", "website": "millefeuille-nyc.com"}}, {"type": "node", "id": 8555373187, "lat": 40.7292023, "lon": -73.9981086, "tags": {"amenity": "bicycle_parking", "bicycle_parking": "stands", "capacity": "2", "covered": "no"}}, {"type": "node", "id": 8555373188, "lat": 40.7292479, "lon": -73.9980657, "tags": {"amenity": "bicycle_parking", "bicycle_parking": "stands", "capacity": "2", "covered": "no"}}, {"type": "node", "id": 8555373189, "lat": 40.7293892, "lon": -73.9981019, "tags": {"amenity": "bicycle_parking", "bicycle_parking": "stands", "capacity": "2", "covered": "no"}}, {"type": "node", "id": 8555373190, "lat": 40.7294222, "lon": -73.9981671, "tags": {"amenity": "bicycle_parking", "bicycle_parking": "stands", "capacity": "2", "covered": "no"}}, {"type": "node", "id": 9888021067, "lat": 40.7267378, "lon": -73.9990692}, {"type": "node", "id": 9888021072, "lat": 40.7269721, "lon": -73.9995498}, {"type": "node", "id": 9966553542, "lat": 40.7288374, "lon": -73.99849, "tags": {"addr:housenumber": "540", "addr:postcode": "10012", "addr:street": "La Guardia Place", "amenity": "restaurant", "branch": "La Guardia Place", "cuisine": "sandwich", "email": "info@courtstreetgrocers.com", "level": "0", "name": "Court Street Grocers", "opening_hours": "09:00-16:00", "phone": "+1 833-533-3200", "website": "https://www.courtstreetgrocers.com/"}}, {"type": "way", "id": 108156090, "nodes": [1241288747, 1241288720, 1241288751, 6216388192, 6216388191, 1241288742, 9888021072, 9888021067, 1241288740, 1241288737, 1241288744, 1241288724, 1241288717, 2547084082, 1241288722, 1241288753, 1241288735, 1241288730, 1241288732, 1241288733, 1241288754, 1241288726, 1241288746, 2547162720, 1241288727, 2077984659, 1241288747], "tags": {"amenity": "university", "fixme": "boundary is not exact please update", "name": "New York University", "name:zh": "\u7ebd\u7ea6\u5927\u5b66", "operator": "New York University", "short_name": "NYU", "source": "bing", "wheelchair": "yes", "wikidata": "Q49210", "wikipedia": "en:New York University"}}, {"type": "way", "id": 248166208, "nodes": [2550067307, 2550067328, 4310489544, 2855621634, 4310489547, 2550067353, 4310489538, 2550067307], "tags": {"addr:city": "New York", "addr:housenumber": "70", "addr:postcode": "10012", "addr:street": "Washington Square South", "amenity": "library", "building": "university", "building:colour": "#C89B7E", "building:part": "yes", "height": "43", "internet_access": "wlan", "internet_access:fee": "no", "internet_access:ssid": "nyu-legacy", "name": "Elmer Holmes Bobst Library", "nycdoitt:bin": "1008626", "opening_hours": "24/7", "operator": "New York University", "roof:colour": "#858178", "roof:material": "concrete", "roof:shape": "flat", "start_date": "1973-09-12", "website": "https://library.nyu.edu/locations/elmer-holmes-bobst-library/", "wikidata": "Q3051566", "wikipedia": "en:Elmer Holmes Bobst Library"}}, {"type": "way", "id": 248166298, "nodes": [2550067457, 2550067462, 2550067476, 2550067482, 2550067502, 2550067479, 2550067442, 2550067443, 2550067457], "tags": {"addr:housenumber": "239", "addr:street": "Thompson Street", "amenity": "place_of_worship", "building": "church", "contact:facebook": "https://www.facebook.com/judsonchurchnyc/", "contact:instagram": "https://www.instagram.com/judsonchurchnyc/", "contact:twitter": "https://twitter.com/judsonchurchnyc", "denomination": "baptist", "ele": "8", "gnis:feature_id": "2080755", "height": "20.5", "name": "Judson Memorial Church", "nycdoitt:bin": "1008717", "official_name": "Judson Memorial Baptist Church", "opening_hours": "Mo-Fr 10:30-18:00", "phone": "+1-212-477-0351", "ref:nrhp": "74001274", "religion": "christian", "website": "https://judson.org/", "wikidata": "Q3111397", "wikipedia": "en:Judson Memorial Church"}}, {"type": "way", "id": 248234584, "nodes": [2550551860, 2550551827, 2550551884, 2550551908, 2550551901, 2550551860], "tags": {"addr:housenumber": "550", "addr:postcode": "10012", "addr:street": "La Guardia Place", "amenity": "restaurant", "building": "yes", "cuisine": "Cookies_Dough", "height": "14.6", "name": "DO, Cookie Dough Confections", "nycdoitt:bin": "1084928"}}, {"type": "way", "id": 248234588, "nodes": [2550552051, 2550552063, 2550552102, 2550552096, 2550552051], "tags": {"addr:housenumber": "80", "addr:postcode": "10012", "addr:street": "West 3rd Street", "amenity": "bar", "building": "yes", "height": "14.5", "name": "Amity Hall", "nycdoitt:bin": "1008675"}}, {"type": "way", "id": 248234589, "nodes": [2550552063, 2550552076, 2550552105, 2550552102, 2550552063], "tags": {"addr:housenumber": "82", "addr:postcode": "10012", "addr:street": "West 3rd Street", "amenity": "restaurant", "building": "yes", "height": "15.1", "nycdoitt:bin": "1008674"}}]}